{
  "type": "FeatureCollection",
  "features": [
    {
      "type": "Feature",
      "properties": {
        "norad_id": 30332,
        "name": "FENGYUN 1C DEB",
        "group": "fengyun-1c-debris",
        "lat": 74.49201121529153,
        "lon": -89.59557949712877,
        "alt_km": 882.6660840223249,
        "timestamp": "2025-12-03T04:52:29.912774+00:00",
        "meta_object_name": "FENGYUN 1C DEB",
        "meta_object_id": "1999-025AAT",
        "meta_epoch": "2025-12-02T20:04:59.959776",
        "meta_mean_motion": 13.76696705,
        "meta_eccentricity": 0.0177925,
        "meta_inclination": 99.7141,
        "meta_ra_of_asc_node": 308.1513,
        "meta_arg_of_pericenter": 128.64,
        "meta_mean_anomaly": 296.2187,
        "meta_ephemeris_type": 0,
        "meta_classification_type": "U",
        "meta_norad_cat_id": 30332,
        "meta_element_set_no": 999,
        "meta_rev_at_epoch": 94579,
        "meta_bstar": 0.00044074,
        "meta_mean_motion_dot": 4.41e-06,
        "meta_mean_motion_ddot": 0,
        "tle_line1": "1 30332U 99025AAT 25336.83680509  .00000441  00000+0  44074-3 0  9994",
        "tle_line2": "2 30332  99.7141 308.1513 0177925 128.6400 296.2187 13.76696705945796"
      },
      "geometry": {
        "type": "Point",
        "coordinates": [
          -89.59557949712877,
          74.49201121529153
        ]
      }
    },
    {
      "type": "Feature",
      "properties": {
        "norad_id": 30334,
        "name": "FENGYUN 1C DEB",
        "group": "fengyun-1c-debris",
        "lat": -32.17453303101967,
        "lon": -108.70551427174837,
        "alt_km": 1022.6226951320241,
        "timestamp": "2025-12-03T04:52:29.912784+00:00",
        "meta_object_name": "FENGYUN 1C DEB",
        "meta_object_id": "1999-025AAV",
        "meta_epoch": "2025-12-02T05:34:13.034784",
        "meta_mean_motion": 13.92325375,
        "meta_eccentricity": 0.0144883,
        "meta_inclination": 99.0216,
        "meta_ra_of_asc_node": 76.0851,
        "meta_arg_of_pericenter": 10.8929,
        "meta_mean_anomaly": 17.8066,
        "meta_ephemeris_type": 0,
        "meta_classification_type": "U",
        "meta_norad_cat_id": 30334,
        "meta_element_set_no": 999,
        "meta_rev_at_epoch": 95075,
        "meta_bstar": 0.0014213,
        "meta_mean_motion_dot": 1.946e-05,
        "meta_mean_motion_ddot": 0,
        "tle_line1": "1 30334U 99025AAV 25336.23209531  .00001946  00000+0  14213-2 0  9994",
        "tle_line2": "2 30334  99.0216  76.0851 0144883  10.8929  17.8066 13.92325375950750"
      },
      "geometry": {
        "type": "Point",
        "coordinates": [
          -108.70551427174837,
          -32.17453303101967
        ]
      }
    },
    {
      "type": "Feature",
      "properties": {
        "norad_id": 30335,
        "name": "FENGYUN 1C DEB",
        "group": "fengyun-1c-debris",
        "lat": 65.04000579816544,
        "lon": 168.41400932271623,
        "alt_km": 813.7452925019161,
        "timestamp": "2025-12-03T04:52:29.912794+00:00",
        "meta_object_name": "FENGYUN 1C DEB",
        "meta_object_id": "1999-025AAW",
        "meta_epoch": "2025-12-02T20:19:47.157312",
        "meta_mean_motion": 14.01355106,
        "meta_eccentricity": 0.0132391,
        "meta_inclination": 98.9048,
        "meta_ra_of_asc_node": 328.3828,
        "meta_arg_of_pericenter": 159.1014,
        "meta_mean_anomaly": 320.0857,
        "meta_ephemeris_type": 0,
        "meta_classification_type": "U",
        "meta_norad_cat_id": 30335,
        "meta_element_set_no": 999,
        "meta_rev_at_epoch": 96452,
        "meta_bstar": 0.00018805,
        "meta_mean_motion_dot": 2.63e-06,
        "meta_mean_motion_ddot": 0,
        "tle_line1": "1 30335U 99025AAW 25336.84707358  .00000263  00000+0  18805-3 0  9995",
        "tle_line2": "2 30335  98.9048 328.3828 0132391 159.1014 320.0857 14.01355106964525"
      },
      "geometry": {
        "type": "Point",
        "coordinates": [
          168.41400932271623,
          65.04000579816544
        ]
      }
    },
    {
      "type": "Feature",
      "properties": {
        "norad_id": 30336,
        "name": "FENGYUN 1C DEB",
        "group": "fengyun-1c-debris",
        "lat": 63.278219405758676,
        "lon": -19.065878910785653,
        "alt_km": 793.6943663975235,
        "timestamp": "2025-12-03T04:52:29.912804+00:00",
        "meta_object_name": "FENGYUN 1C DEB",
        "meta_object_id": "1999-025AAX",
        "meta_epoch": "2025-12-02T19:15:29.265120",
        "meta_mean_motion": 14.1928195,
        "meta_eccentricity": 0.0044053,
        "meta_inclination": 98.6015,
        "meta_ra_of_asc_node": 358.0423,
        "meta_arg_of_pericenter": 37.122,
        "meta_mean_anomaly": 141.091,
        "meta_ephemeris_type": 0,
        "meta_classification_type": "U",
        "meta_norad_cat_id": 30336,
        "meta_element_set_no": 999,
        "meta_rev_at_epoch": 97461,
        "meta_bstar": 0.00043371,
        "meta_mean_motion_dot": 8.76e-06,
        "meta_mean_motion_ddot": 0,
        "tle_line1": "1 30336U 99025AAX 25336.80242205  .00000876  00000+0  43371-3 0  9993",
        "tle_line2": "2 30336  98.6015 358.0423 0044053  37.1220 141.0910 14.19281950974615"
      },
      "geometry": {
        "type": "Point",
        "coordinates": [
          -19.065878910785653,
          63.278219405758676
        ]
      }
    },
    {
      "type": "Feature",
      "properties": {
        "norad_id": 30338,
        "name": "FENGYUN 1C DEB",
        "group": "fengyun-1c-debris",
        "lat": -21.337251395394357,
        "lon": -136.43222931378557,
        "alt_km": 558.7922752004833,
        "timestamp": "2025-12-03T04:52:29.912815+00:00",
        "meta_object_name": "FENGYUN 1C DEB",
        "meta_object_id": "1999-025AAZ",
        "meta_epoch": "2025-12-02T18:34:12.889056",
        "meta_mean_motion": 14.47309154,
        "meta_eccentricity": 0.0272158,
        "meta_inclination": 98.461,
        "meta_ra_of_asc_node": 46.4714,
        "meta_arg_of_pericenter": 224.1926,
        "meta_mean_anomaly": 262.5708,
        "meta_ephemeris_type": 0,
        "meta_classification_type": "U",
        "meta_norad_cat_id": 30338,
        "meta_element_set_no": 999,
        "meta_rev_at_epoch": 98000,
        "meta_bstar": 0.001674,
        "meta_mean_motion_dot": 9.728e-05,
        "meta_mean_motion_ddot": 0,
        "tle_line1": "1 30338U 99025AAZ 25336.77376029  .00009728  00000+0  16740-2 0  9997",
        "tle_line2": "2 30338  98.4610  46.4714 0272158 224.1926 262.5708 14.47309154980009"
      },
      "geometry": {
        "type": "Point",
        "coordinates": [
          -136.43222931378557,
          -21.337251395394357
        ]
      }
    },
    {
      "type": "Feature",
      "properties": {
        "norad_id": 30339,
        "name": "FENGYUN 1C DEB",
        "group": "fengyun-1c-debris",
        "lat": 27.02604532290286,
        "lon": 78.5864655111868,
        "alt_km": 763.2020090060614,
        "timestamp": "2025-12-03T04:52:29.912825+00:00",
        "meta_object_name": "FENGYUN 1C DEB",
        "meta_object_id": "1999-025ABA",
        "meta_epoch": "2025-12-02T13:47:09.746304",
        "meta_mean_motion": 14.37892644,
        "meta_eccentricity": 0.00222971,
        "meta_inclination": 98.9742,
        "meta_ra_of_asc_node": 82.5538,
        "meta_arg_of_pericenter": 115.4331,
        "meta_mean_anomaly": 259.7061,
        "meta_ephemeris_type": 0,
        "meta_classification_type": "U",
        "meta_norad_cat_id": 30339,
        "meta_element_set_no": 999,
        "meta_rev_at_epoch": 97281,
        "meta_bstar": 0.0034547282,
        "meta_mean_motion_dot": 0.00010424,
        "meta_mean_motion_ddot": 0,
        "tle_line1": "1 30339U 99025ABA 25336.57441836  .00010424  00000+0  34547-2 0  9995",
        "tle_line2": "2 30339  98.9742  82.5538 0022297 115.4331 259.7061 14.37892644972815"
      },
      "geometry": {
        "type": "Point",
        "coordinates": [
          78.5864655111868,
          27.02604532290286
        ]
      }
    },
    {
      "type": "Feature",
      "properties": {
        "norad_id": 30340,
        "name": "FENGYUN 1C DEB",
        "group": "fengyun-1c-debris",
        "lat": -38.453057530728174,
        "lon": 41.240341072055024,
        "alt_km": 983.4490056062104,
        "timestamp": "2025-12-03T04:52:29.912836+00:00",
        "meta_object_name": "FENGYUN 1C DEB",
        "meta_object_id": "1999-025ABB",
        "meta_epoch": "2025-12-02T17:41:04.924320",
        "meta_mean_motion": 14.04592483,
        "meta_eccentricity": 0.014584,
        "meta_inclination": 99.0031,
        "meta_ra_of_asc_node": 33.5454,
        "meta_arg_of_pericenter": 162.569,
        "meta_mean_anomaly": 321.552,
        "meta_ephemeris_type": 0,
        "meta_classification_type": "U",
        "meta_norad_cat_id": 30340,
        "meta_element_set_no": 999,
        "meta_rev_at_epoch": 96640,
        "meta_bstar": 8.2848e-05,
        "meta_mean_motion_dot": 1.02e-06,
        "meta_mean_motion_ddot": 0,
        "tle_line1": "1 30340U 99025ABB 25336.73686255  .00000102  00000+0  82848-4 0  9992",
        "tle_line2": "2 30340  99.0031  33.5454 0145840 162.5690 321.5520 14.04592483966402"
      },
      "geometry": {
        "type": "Point",
        "coordinates": [
          41.240341072055024,
          -38.453057530728174
        ]
      }
    }
  ]
}